[{"COMMENT":"GENERATED VIA SPACETRACK.ORG API","ORIGINATOR":"18 SPCS","NORAD_CAT_ID":"43477","OBJECT_NAME":"GRACE-FO 2","OBJECT_TYPE":"PAYLOAD","CLASSIFICATION_TYPE":"U","INTLDES":"18047B","EPOCH":"2023-12-09 22:25:26","EPOCH_MICROSECONDS":"877504","MEAN_MOTION":"15.27542308","ECCENTRICITY":"0.0016755","INCLINATION":"88.981","RA_OF_ASC_NODE":"325.2411","ARG_OF_PERICENTER":"82.918","MEAN_ANOMALY":"277.3974","EPHEMERIS_TYPE":"0","ELEMENT_SET_NO":"999","REV_AT_EPOCH":"30881","BSTAR":"0.000093728","MEAN_MOTION_DOT":"0.00002564","MEAN_MOTION_DDOT":"0","FILE":"4130742","TLE_LINE0":"0 GRACE-FO 2","TLE_LINE1":"1 43477U 18047B   23343.93433886  .00002564  00000-0  93728-4 0  9994","TLE_LINE2":"2 43477  88.9810 325.2411 0016755  82.9180 277.3974 15.27542308308817","OBJECT_ID":"2018-047B","OBJECT_NUMBER":"43477","SEMIMAJOR_AXIS":"6861.299","PERIOD":"94.269","APOGEE":"494.660","PERIGEE":"471.668","DECAYED":"0"},{"COMMENT":"GENERATED VIA SPACETRACK.ORG API","ORIGINATOR":"18 SPCS","NORAD_CAT_ID":"43477","OBJECT_NAME":"GRACE-FO 2","OBJECT_TYPE":"PAYLOAD","CLASSIFICATION_TYPE":"U","INTLDES":"18047B","EPOCH":"2023-12-10 14:08:47","EPOCH_MICROSECONDS":"868288","MEAN_MOTION":"15.27546137","ECCENTRICITY":"0.0016745","INCLINATION":"88.981","RA_OF_ASC_NODE":"325.1512","ARG_OF_PERICENTER":"80.8937","MEAN_ANOMALY":"279.4206","EPHEMERIS_TYPE":"0","ELEMENT_SET_NO":"999","REV_AT_EPOCH":"30891","BSTAR":"0.000097807","MEAN_MOTION_DOT":"0.00002674","MEAN_MOTION_DDOT":"0","FILE":"4131684","TLE_LINE0":"0 GRACE-FO 2","TLE_LINE1":"1 43477U 18047B   23344.58944292  .00002674  00000-0  97807-4 0  9998","TLE_LINE2":"2 43477  88.9810 325.1512 0016745  80.8937 279.4206 15.27546137308910","OBJECT_ID":"2018-047B","OBJECT_NUMBER":"43477","SEMIMAJOR_AXIS":"6861.287","PERIOD":"94.269","APOGEE":"494.642","PERIGEE":"471.663","DECAYED":"0"},{"COMMENT":"GENERATED VIA SPACETRACK.ORG API","ORIGINATOR":"18 SPCS","NORAD_CAT_ID":"43477","OBJECT_NAME":"GRACE-FO 2","OBJECT_TYPE":"PAYLOAD","CLASSIFICATION_TYPE":"U","INTLDES":"18047B","EPOCH":"2023-12-10 18:51:48","EPOCH_MICROSECONDS":"139776","MEAN_MOTION":"15.27547179","ECCENTRICITY":"0.0016742","INCLINATION":"88.981","RA_OF_ASC_NODE":"325.1242","ARG_OF_PERICENTER":"80.2651","MEAN_ANOMALY":"280.0489","EPHEMERIS_TYPE":"0","ELEMENT_SET_NO":"999","REV_AT_EPOCH":"30894","BSTAR":"0.000098055","MEAN_MOTION_DOT":"0.00002681","MEAN_MOTION_DDOT":"0","FILE":"4131781","TLE_LINE0":"0 GRACE-FO 2","TLE_LINE1":"1 43477U 18047B   23344.78597384  .00002681  00000-0  98055-4 0  9990","TLE_LINE2":"2 43477  88.9810 325.1242 0016742  80.2651 280.0489 15.27547179308945","OBJECT_ID":"2018-047B","OBJECT_NUMBER":"43477","SEMIMAJOR_AXIS":"6861.284","PERIOD":"94.269","APOGEE":"494.637","PERIGEE":"471.662","DECAYED":"0"},{"COMMENT":"GENERATED VIA SPACETRACK.ORG API","ORIGINATOR":"18 SPCS","NORAD_CAT_ID":"43477","OBJECT_NAME":"GRACE-FO 2","OBJECT_TYPE":"PAYLOAD","CLASSIFICATION_TYPE":"U","INTLDES":"18047B","EPOCH":"2023-12-10 22:00:28","EPOCH_MICROSECONDS":"294560","MEAN_MOTION":"15.2754739","ECCENTRICITY":"0.0016735","INCLINATION":"88.981","RA_OF_ASC_NODE":"325.1063","ARG_OF_PERICENTER":"79.8516","MEAN_ANOMALY":"280.462","EPHEMERIS_TYPE":"0","ELEMENT_SET_NO":"999","REV_AT_EPOCH":"30896","BSTAR":"0.000089953","MEAN_MOTION_DOT":"0.00002462","MEAN_MOTION_DDOT":"0","FILE":"4132333","TLE_LINE0":"0 GRACE-FO 2","TLE_LINE1":"1 43477U 18047B   23344.91699415  .00002462  00000-0  89953-4 0  9997","TLE_LINE2":"2 43477  88.9810 325.1063 0016735  79.8516 280.4620 15.27547390308960","OBJECT_ID":"2018-047B","OBJECT_NUMBER":"43477","SEMIMAJOR_AXIS":"6861.284","PERIOD":"94.269","APOGEE":"494.631","PERIGEE":"471.666","DECAYED":"0"},{"COMMENT":"GENERATED VIA SPACETRACK.ORG API","ORIGINATOR":"18 SPCS","NORAD_CAT_ID":"43477","OBJECT_NAME":"GRACE-FO 2","OBJECT_TYPE":"PAYLOAD","CLASSIFICATION_TYPE":"U","INTLDES":"18047B","EPOCH":"2023-12-11 13:43:49","EPOCH_MICROSECONDS":"102176","MEAN_MOTION":"15.27551326","ECCENTRICITY":"0.0016716","INCLINATION":"88.9811","RA_OF_ASC_NODE":"325.0164","ARG_OF_PERICENTER":"77.7887","MEAN_ANOMALY":"282.5233","EPHEMERIS_TYPE":"0","ELEMENT_SET_NO":"999","REV_AT_EPOCH":"30906","BSTAR":"0.000099631","MEAN_MOTION_DOT":"0.00002724","MEAN_MOTION_DDOT":"0","FILE":"4133233","TLE_LINE0":"0 GRACE-FO 2","TLE_LINE1":"1 43477U 18047B   23345.57209609  .00002724  00000-0  99631-4 0  9997","TLE_LINE2":"2 43477  88.9811 325.0164 0016716  77.7887 282.5233 15.27551326309068","OBJECT_ID":"2018-047B","OBJECT_NUMBER":"43477","SEMIMAJOR_AXIS":"6861.272","PERIOD":"94.269","APOGEE":"494.606","PERIGEE":"471.668","DECAYED":"0"},{"COMMENT":"GENERATED VIA SPACETRACK.ORG API","ORIGINATOR":"18 SPCS","NORAD_CAT_ID":"43477","OBJECT_NAME":"GRACE-FO 2","OBJECT_TYPE":"PAYLOAD","CLASSIFICATION_TYPE":"U","INTLDES":"18047B","EPOCH":"2023-12-11 20:01:09","EPOCH_MICROSECONDS":"382368","MEAN_MOTION":"15.27552782","ECCENTRICITY":"0.0016703","INCLINATION":"88.9811","RA_OF_ASC_NODE":"324.9804","ARG_OF_PERICENTER":"76.9677","MEAN_ANOMALY":"283.3436","EPHEMERIS_TYPE":"0","ELEMENT_SET_NO":"999","REV_AT_EPOCH":"30910","BSTAR":"0.0001016","MEAN_MOTION_DOT":"0.00002777","MEAN_MOTION_DDOT":"0","FILE":"4133351","TLE_LINE0":"0 GRACE-FO 2","TLE_LINE1":"1 43477U 18047B   23345.83413637  .00002777  00000-0  10160-3 0  9991","TLE_LINE2":"2 43477  88.9811 324.9804 0016703  76.9677 283.3436 15.27552782309107","OBJECT_ID":"2018-047B","OBJECT_NUMBER":"43477","SEMIMAJOR_AXIS":"6861.268","PERIOD":"94.268","APOGEE":"494.593","PERIGEE":"471.672","DECAYED":"0"},{"COMMENT":"GENERATED VIA SPACETRACK.ORG API","ORIGINATOR":"18 SPCS","NORAD_CAT_ID":"43477","OBJECT_NAME":"GRACE-FO 2","OBJECT_TYPE":"PAYLOAD","CLASSIFICATION_TYPE":"U","INTLDES":"18047B","EPOCH":"2023-12-11 21:35:29","EPOCH_MICROSECONDS":"440320","MEAN_MOTION":"15.27552121","ECCENTRICITY":"0.0016703","INCLINATION":"88.9811","RA_OF_ASC_NODE":"324.9714","ARG_OF_PERICENTER":"76.7562","MEAN_ANOMALY":"283.5549","EPHEMERIS_TYPE":"0","ELEMENT_SET_NO":"999","REV_AT_EPOCH":"30911","BSTAR":"0.000087949","MEAN_MOTION_DOT":"0.00002408","MEAN_MOTION_DDOT":"0","FILE":"4133725","TLE_LINE0":"0 GRACE-FO 2","TLE_LINE1":"1 43477U 18047B   23345.89964630  .00002408  00000-0  87949-4 0  9992","TLE_LINE2":"2 43477  88.9811 324.9714 0016703  76.7562 283.5549 15.27552121309113","OBJECT_ID":"2018-047B","OBJECT_NUMBER":"43477","SEMIMAJOR_AXIS":"6861.270","PERIOD":"94.268","APOGEE":"494.595","PERIGEE":"471.674","DECAYED":"0"},{"COMMENT":"GENERATED VIA SPACETRACK.ORG API","ORIGINATOR":"18 SPCS","NORAD_CAT_ID":"43477","OBJECT_NAME":"GRACE-FO 2","OBJECT_TYPE":"PAYLOAD","CLASSIFICATION_TYPE":"U","INTLDES":"18047B","EPOCH":"2023-12-12 13:18:50","EPOCH_MICROSECONDS":"45760","MEAN_MOTION":"15.27556476","ECCENTRICITY":"0.0016673","INCLINATION":"88.9811","RA_OF_ASC_NODE":"324.8816","ARG_OF_PERICENTER":"74.6494","MEAN_ANOMALY":"285.6597","EPHEMERIS_TYPE":"0","ELEMENT_SET_NO":"999","REV_AT_EPOCH":"30921","BSTAR":"0.0001027","MEAN_MOTION_DOT":"0.00002807","MEAN_MOTION_DDOT":"0","FILE":"4134660","TLE_LINE0":"0 GRACE-FO 2","TLE_LINE1":"1 43477U 18047B   23346.55474590  .00002807  00000-0  10270-3 0  9992","TLE_LINE2":"2 43477  88.9811 324.8816 0016673  74.6494 285.6597 15.27556476309216","OBJECT_ID":"2018-047B","OBJECT_NUMBER":"43477","SEMIMAJOR_AXIS":"6861.257","PERIOD":"94.268","APOGEE":"494.561","PERIGEE":"471.682","DECAYED":"0"},{"COMMENT":"GENERATED VIA SPACETRACK.ORG API","ORIGINATOR":"18 SPCS","NORAD_CAT_ID":"43477","OBJECT_NAME":"GRACE-FO 2","OBJECT_TYPE":"PAYLOAD","CLASSIFICATION_TYPE":"U","INTLDES":"18047B","EPOCH":"2023-12-12 21:10:30","EPOCH_MICROSECONDS":"282816","MEAN_MOTION":"15.27559097","ECCENTRICITY":"0.0016653","INCLINATION":"88.9811","RA_OF_ASC_NODE":"324.8367","ARG_OF_PERICENTER":"73.6175","MEAN_ANOMALY":"286.6904","EPHEMERIS_TYPE":"0","ELEMENT_SET_NO":"999","REV_AT_EPOCH":"30926","BSTAR":"0.00011367","MEAN_MOTION_DOT":"0.00003104","MEAN_MOTION_DDOT":"0","FILE":"4134943","TLE_LINE0":"0 GRACE-FO 2","TLE_LINE1":"1 43477U 18047B   23346.88229494  .00003104  00000-0  11367-3 0  9998","TLE_LINE2":"2 43477  88.9811 324.8367 0016653  73.6175 286.6904 15.27559097309260","OBJECT_ID":"2018-047B","OBJECT_NUMBER":"43477","SEMIMAJOR_AXIS":"6861.249","PERIOD":"94.268","APOGEE":"494.540","PERIGEE":"471.688","DECAYED":"0"},{"COMMENT":"GENERATED VIA SPACETRACK.ORG API","ORIGINATOR":"18 SPCS","NORAD_CAT_ID":"43477","OBJECT_NAME":"GRACE-FO 2","OBJECT_TYPE":"PAYLOAD","CLASSIFICATION_TYPE":"U","INTLDES":"18047B","EPOCH":"2023-12-13 03:27:50","EPOCH_MICROSECONDS":"445504","MEAN_MOTION":"15.27560473","ECCENTRICITY":"0.0016632","INCLINATION":"88.9812","RA_OF_ASC_NODE":"324.8008","ARG_OF_PERICENTER":"72.8172","MEAN_ANOMALY":"287.4896","EPHEMERIS_TYPE":"0","ELEMENT_SET_NO":"999","REV_AT_EPOCH":"30930","BSTAR":"0.00011215","MEAN_MOTION_DOT":"0.00003063","MEAN_MOTION_DDOT":"0","FILE":"4135033","TLE_LINE0":"0 GRACE-FO 2","TLE_LINE1":"1 43477U 18047B   23347.14433386  .00003063  00000-0  11215-3 0  9991","TLE_LINE2":"2 43477  88.9812 324.8008 0016632  72.8172 287.4896 15.27560473309302","OBJECT_ID":"2018-047B","OBJECT_NUMBER":"43477","SEMIMAJOR_AXIS":"6861.245","PERIOD":"94.268","APOGEE":"494.521","PERIGEE":"471.698","DECAYED":"0"}]